{
  "type": "Feature",
  "properties": {
    "name": "San Juan Island",
    "airport": "KFHR",
    "source": "OpenStreetMap via Nominatim (ODbL)",
    "simplification": "Ramer-Douglas-Peucker, 80 points from 4306"
  },
  "geometry": {
    "type": "Polygon",
    "coordinates": [[
      [-123.17697, 48.56628],
      [-123.17263, 48.55570],
      [-123.16135, 48.54808],
      [-123.16323, 48.52954],
      [-123.13341, 48.49855],
      [-123.10300, 48.49048],
      [-123.09366, 48.48168],
      [-123.08520, 48.48534],
      [-123.07576, 48.48105],
      [-123.07708, 48.48741],
      [-123.06449, 48.48981],
      [-123.06130, 48.48418],
      [-123.06727, 48.48179],
      [-123.06596, 48.47387],
      [-123.05074, 48.46914],
      [-123.03703, 48.45807],
      [-123.03186, 48.46160],
      [-123.02296, 48.45678],
      [-122.96179, 48.45160],
      [-122.95992, 48.46495],
      [-122.97086, 48.46823],
      [-122.96511, 48.46020],
      [-122.99913, 48.46616],
      [-123.00901, 48.47316],
      [-123.00748, 48.48427],
      [-123.02261, 48.49389],
      [-123.01809, 48.49651],
      [-123.02209, 48.50221],
      [-123.01587, 48.50543],
      [-123.02115, 48.51003],
      [-123.01670, 48.52086],
      [-122.98258, 48.51454],
      [-122.97144, 48.52222],
      [-122.97380, 48.52803],
      [-122.97952, 48.52772],
      [-122.97913, 48.53348],
      [-122.98793, 48.53614],
      [-122.99561, 48.53508],
      [-122.99367, 48.52949],
      [-122.99970, 48.52591],
      [-123.00371, 48.53190],
      [-123.01990, 48.53755],
      [-123.01613, 48.54087],
      [-123.01863, 48.54483],
      [-123.00578, 48.54976],
      [-123.01184, 48.55858],
      [-123.04039, 48.56501],
      [-123.07528, 48.59224],
      [-123.10580, 48.59984],
      [-123.09748, 48.61281],
      [-123.10159, 48.61951],
      [-123.14115, 48.61932],
      [-123.14950, 48.62140],
      [-123.13885, 48.62316],
      [-123.15237, 48.62345],
      [-123.15057, 48.61999],
      [-123.15747, 48.61494],
      [-123.15098, 48.60969],
      [-123.16659, 48.60524],
      [-123.16342, 48.59871],
      [-123.17065, 48.59736],
      [-123.17170, 48.59076],
      [-123.16011, 48.60009],
      [-123.15023, 48.59931],
      [-123.14358, 48.60797],
      [-123.13694, 48.60223],
      [-123.14594, 48.59307],
      [-123.15718, 48.59271],
      [-123.14782, 48.57826],
      [-123.15299, 48.58342],
      [-123.16209, 48.58358],
      [-123.16155, 48.58993],
      [-123.17031, 48.58825],
      [-123.16849, 48.58322],
      [-123.17376, 48.57791],
      [-123.16313, 48.56955],
      [-123.15260, 48.57756],
      [-123.15548, 48.56847],
      [-123.17195, 48.57237],
      [-123.17697, 48.56628]
    ]]
  }
}
